BEIDOU-2 IGSO-1 (C06)   
1 36828U 10036A   24188.55806606 -.00000100  00000+0  00000+0 0  9996
2 36828  54.2566 169.3880 0041918 207.4028 217.1016  1.00277052 51084
BEIDOU-2 G4 (C04)       
1 37210U 10057A   24189.79641694 -.00000117  00000+0  00000+0 0  9994
2 37210   1.8936  69.0848 0004171 156.4613 147.3886  1.00270645 50171
BEIDOU-2 IGSO-2 (C07)   
1 37256U 10068A   24177.03205666 -.00000185  00000+0  00000+0 0  9990
2 37256  48.8639 280.7291 0036230 210.2706 258.3565  1.00247372 49557
BEIDOU-2 IGSO-3 (C08)   
1 37384U 11013A   24189.42620116 -.00000173  00000+0  00000+0 0  9997
2 37384  61.3801  46.9138 0027047 173.7106 323.8883  1.00253943 48545
BEIDOU-2 IGSO-4 (C09)   
1 37763U 11038A   24189.42544031 -.00000022  00000+0  00000+0 0  9999
2 37763  54.5619 171.9936 0126248 229.1537 131.1226  1.00255598 47536
BEIDOU-2 IGSO-5 (C10)   
1 37948U 11073A   24189.71210965 -.00000192  00000+0  00000+0 0  9999
2 37948  48.9723 280.2602 0101676 220.2518 136.6500  1.00289492 46283
BEIDOU-2 G5 (C05)       
1 38091U 12008A   24189.56159684  .00000051  00000+0  00000+0 0  9994
2 38091   2.1247  71.0358 0004810 263.7983 212.1278  1.00277141 45256
BEIDOU-2 M3 (C11)       
1 38250U 12018A   24189.87403493 -.00000104  00000+0  00000+0 0  9996
2 38250  56.3247 328.6544 0021524 261.0653  98.6816  1.86231343 83084
BEIDOU-2 M4 (C12)       
1 38251U 12018B   24188.73023958 -.00000107  00000+0  00000+0 0  9998
2 38251  56.2323 327.9624 0012352 261.5105  98.3370  1.86232020 82710
BEIDOU-2 M6 (C14)       
1 38775U 12050B   24190.05069632 -.00000045  00000+0  00000+0 0  9993
2 38775  55.9283  86.4655 0013392 342.7551  17.2427  1.86231252 80453
BEIDOU-2 G6 (C02)       
1 38953U 12059A   24189.56658951 -.00000180  00000+0  00000+0 0  9992
2 38953   2.6110  80.3764 0008830 319.1519 174.4392  1.00269131 42791
BEIDOU-3S IGSO-1S (C31) 
1 40549U 15019A   24189.78310247 -.00000172  00000+0  00000+0 0  9993
2 40549  50.5342 303.9491 0035698 193.2243 162.6097  1.00300923 33956
BEIDOU-3S M2S (C58)     
1 40748U 15037A   24188.93029024 -.00000106  00000+0  00000+0 0  9997
2 40748  55.4635 326.3644 0009250 245.2732 114.6197  1.86233292 60890
BEIDOU-3S M1S (C57)     
1 40749U 15037B   24187.59019290 -.00000110  00000+0  00000+0 0  9998
2 40749  55.4670 326.3960 0002626 348.4370  11.5426  1.86227603 60861
BEIDOU-3S IGSO-2S (C56) 
1 40938U 15053A   24188.62228248 -.00000108  00000+0  00000+0 0  9993
2 40938  50.3255 267.1784 0053453 190.7660 145.6164  1.00258192 32224
BEIDOU-2 IGSO-6 (C13)   
1 41434U 16021A   24190.06959209 -.00000153  00000+0  00000+0 0  9990
2 41434  59.2075  45.1342 0047899 222.0624 139.6299  1.00267431 30365
BEIDOU-2 G7 (C03)       
1 41586U 16037A   24189.79817795 -.00000358  00000+0  00000+0 0  9993
2 41586   1.9558  69.8978 0008586   2.3476 251.7474  1.00278389 29661
BEIDOU-3 M1 (C19)       
1 43001U 17069A   24188.20583768 -.00000056  00000+0  00000+0 0  9993
2 43001  56.0772  86.6257 0009940 311.4460  48.5022  1.86231567 45360
BEIDOU-3 M2 (C20)       
1 43002U 17069B   24189.21704018 -.00000049  00000+0  00000+0 0  9991
2 43002  56.0772  86.6284 0008377 336.5683  23.4328  1.86231082 45373
BEIDOU-3 M7 (C27)       
1 43107U 18003A   24188.96589877 -.00000108  00000+0  00000+0 0  9997
2 43107  54.9215 326.9454 0004408  81.8177 278.2216  1.86232602 44123
BEIDOU-3 M8 (C28)       
1 43108U 18003B   24189.44346036 -.00000106  00000+0  00000+0 0  9998
2 43108  54.9144 326.9142 0003008 247.3993 112.5597  1.86230754 44149
BEIDOU-3 M4 (C22)       
1 43207U 18018A   24181.29350937 -.00000047  00000+0  00000+0 0  9998
2 43207  56.0307  86.9448 0006708   1.9650 358.0567  1.86231207 43371
BEIDOU-3 M3 (C21)       
1 43208U 18018B   24187.26661061 -.00000064  00000+0  00000+0 0  9994
2 43208  56.0348  86.7496 0008075 326.0726  33.9033  1.86231326 43483
BEIDOU-3 M9 (C29)       
1 43245U 18029A   24189.09847076 -.00000105  00000+0  00000+0 0  9998
2 43245  54.8037 324.6464 0000856 176.2185 183.7731  1.86232840 42678
BEIDOU-3 M10 (C30)      
1 43246U 18029B   24188.49116278 -.00000107  00000+0  00000+0 0  9997
2 43246  54.8018 324.6955 0003190  20.6699 339.3320  1.86233032 42643
BEIDOU-2 IGSO-7 (C16)   
1 43539U 18057A   24190.16330608 -.00000097  00000+0  00000+0 0  9993
2 43539  55.1457 169.1850 0075568 233.7446  51.2410  1.00247030 22029
BEIDOU-3 M5 (C23)       
1 43581U 18062A   24189.25142775  .00000045  00000+0  00000+0 0  9992
2 43581  54.1320 206.4501 0005624 275.9099  84.0668  1.86228835 40418
BEIDOU-3 M6 (C24)       
1 43582U 18062B   24185.89551434  .00000089  00000+0  00000+0 0  9993
2 43582  54.1318 206.5538 0004293 354.2922   5.7626  1.86229555 40351
BEIDOU-3 M12 (C26)      
1 43602U 18067A   24185.82867086  .00000090  00000+0  00000+0 0  9999
2 43602  54.2223 205.2391 0006685  16.8968 343.1829  1.86231627 39839
BEIDOU-3 M11 (C25)      
1 43603U 18067B   24189.18428360  .00000045  00000+0  00000+0 0  9991
2 43603  54.2193 205.0902 0003754 357.7621   2.2745  1.86231593 39921
BEIDOU-3 M13 (C32)      
1 43622U 18072A   24189.14553213 -.00000049  00000+0  00000+0 0  9995
2 43622  56.0077  86.2138 0006536 312.2258  47.7582  1.86231638 39435
